[{"OBJECT_NAME":"STARLINK-3398","OBJECT_ID":"2022-005S","EPOCH":"2026-03-09T22:05:57.854400","MEAN_MOTION":15.088389,"ECCENTRICITY":0.00014316,"INCLINATION":53.2187,"RA_OF_ASC_NODE":288.0944,"ARG_OF_PERICENTER":87.3193,"MEAN_ANOMALY":272.7963,"EPHEMERIS_TYPE":0,"CLASSIFICATION_TYPE":"U","NORAD_CAT_ID":51120,"ELEMENT_SET_NO":999,"REV_AT_EPOCH":22891,"BSTAR":8.364056e-6,"MEAN_MOTION_DOT":-1.55e-6,"MEAN_MOTION_DDOT":0},{"OBJECT_NAME":"CZ-6A DEB","OBJECT_ID":"2022-151AEC","EPOCH":"2026-03-09T16:07:43.414464","MEAN_MOTION":15.01082395,"ECCENTRICITY":0.0040922,"INCLINATION":98.632,"RA_OF_ASC_NODE":144.2747,"ARG_OF_PERICENTER":190.1613,"MEAN_ANOMALY":169.8786,"EPHEMERIS_TYPE":0,"CLASSIFICATION_TYPE":"U","NORAD_CAT_ID":56604,"ELEMENT_SET_NO":999,"REV_AT_EPOCH":16341,"BSTAR":0.005850488,"MEAN_MOTION_DOT":0.00076879,"MEAN_MOTION_DDOT":0}]
